[
    {
        "Altitude(m)": 560905.5498527368,
        "Argument of Periapsis(deg)": 0.0,
        "Eccentricity": 0.0,
        "Inclination(deg)": 53.0,
        "Latitude(deg)": -25.77630208615238,
        "Longitude(deg)": -13.751892678141314,
        "Mean Anomaly(deg)": -147.2727,
        "RAAN(deg)": 245.0,
        "Satellite Name": "Starlink Shell 1 1091",
        "Satellite Number": 1091,
        "Semi-Major Axis(m)": 6931778.249405717,
        "Time(s)": 0
    },
    {
        "Altitude(m)": 561076.8286556127,
        "Argument of Periapsis(deg)": 0.00034857847951123687,
        "Eccentricity": 0.0,
        "Inclination(deg)": 53.0,
        "Latitude(deg)": -26.243741811952535,
        "Longitude(deg)": -13.32818198475171,
        "Mean Anomaly(deg)": -146.64586879644327,
        "RAAN(deg)": 244.99948122992257,
        "Satellite Name": "Starlink Shell 1 1091",
        "Satellite Number": 1091,
        "Semi-Major Axis(m)": 6931778.249405717,
        "Time(s)": 10
    },
    {
        "Altitude(m)": 561248.7961918849,
        "Argument of Periapsis(deg)": 0.0006971569590224737,
        "Eccentricity": 0.0,
        "Inclination(deg)": 53.0,
        "Latitude(deg)": -26.70962043474852,
        "Longitude(deg)": -12.900759760870448,
        "Mean Anomaly(deg)": -146.01903759288655,
        "RAAN(deg)": 244.9989624598451,
        "Satellite Name": "Starlink Shell 1 1091",
        "Satellite Number": 1091,
        "Semi-Major Axis(m)": 6931778.249405717,
        "Time(s)": 20
    },
    {
        "Altitude(m)": 561421.3894177462,
        "Argument of Periapsis(deg)": 0.0010457354385337105,
        "Eccentricity": 0.0,
        "Inclination(deg)": 53.0,
        "Latitude(deg)": -27.173894361633874,
        "Longitude(deg)": -12.469531798233179,
        "Mean Anomaly(deg)": -145.39220638932986,
        "RAAN(deg)": 244.9984436897676,
        "Satellite Name": "Starlink Shell 1 1091",
        "Satellite Number": 1091,
        "Semi-Major Axis(m)": 6931778.249405717,
        "Time(s)": 30
    },
    {
        "Altitude(m)": 561594.5448623747,
        "Argument of Periapsis(deg)": 0.0013943139180449475,
        "Eccentricity": 0.0,
        "Inclination(deg)": 53.0,
        "Latitude(deg)": -27.636519063832015,
        "Longitude(deg)": -12.034402095068904,
        "Mean Anomaly(deg)": -144.76537518577308,
        "RAAN(deg)": 244.9979249196901,
        "Satellite Name": "Starlink Shell 1 1091",
        "Satellite Number": 1091,
        "Semi-Major Axis(m)": 6931778.249405717,
        "Time(s)": 40
    },
    {
        "Altitude(m)": 561768.1986564404,
        "Argument of Periapsis(deg)": 0.0017428923975561844,
        "Eccentricity": 0.0,
        "Inclination(deg)": 53.0,
        "Latitude(deg)": -28.097449048301655,
        "Longitude(deg)": -11.59527385850358,
        "Mean Anomaly(deg)": -144.13854398221648,
        "RAAN(deg)": 244.9974061496127,
        "Satellite Name": "Starlink Shell 1 1091",
        "Satellite Number": 1091,
        "Semi-Major Axis(m)": 6931778.249405717,
        "Time(s)": 50
    },
    {
        "Altitude(m)": 561942.286560747,
        "Argument of Periapsis(deg)": 0.002091470877067421,
        "Eccentricity": 0.0,
        "Inclination(deg)": 53.0,
        "Latitude(deg)": -28.556637828857184,
        "Longitude(deg)": -11.152048996527336,
        "Mean Anomaly(deg)": -143.5117127786597,
        "RAAN(deg)": 244.9968873795352,
        "Satellite Name": "Starlink Shell 1 1091",
        "Satellite Number": 1091,
        "Semi-Major Axis(m)": 6931778.249405717,
        "Time(s)": 60
    },
    {
        "Altitude(m)": 562116.7439950467,
        "Argument of Periapsis(deg)": 0.0024400493565786582,
        "Eccentricity": 0.0,
        "Inclination(deg)": 53.0,
        "Latitude(deg)": -29.014037896816593,
        "Longitude(deg)": -10.704627612622865,
        "Mean Anomaly(deg)": -142.884881575103,
        "RAAN(deg)": 244.9963686094577,
        "Satellite Name": "Starlink Shell 1 1091",
        "Satellite Number": 1091,
        "Semi-Major Axis(m)": 6931778.249405717,
        "Time(s)": 70
    },
    {
        "Altitude(m)": 562291.5060670187,
        "Argument of Periapsis(deg)": 0.002788627836089895,
        "Eccentricity": 0.0,
        "Inclination(deg)": 53.0,
        "Latitude(deg)": -29.469600691201173,
        "Longitude(deg)": -10.252909016159679,
        "Mean Anomaly(deg)": -142.2580503715463,
        "RAAN(deg)": 244.99584983938024,
        "Satellite Name": "Starlink Shell 1 1091",
        "Satellite Number": 1091,
        "Semi-Major Axis(m)": 6931778.249405717,
        "Time(s)": 80
    },
    {
        "Altitude(m)": 562466.5076013687,
        "Argument of Periapsis(deg)": 0.0031372063156011316,
        "Eccentricity": 0.0,
        "Inclination(deg)": 53.0,
        "Latitude(deg)": -29.923276568500476,
        "Longitude(deg)": -9.79679122305782,
        "Mean Anomaly(deg)": -141.6312191679896,
        "RAAN(deg)": 244.99533106930278,
        "Satellite Name": "Starlink Shell 1 1091",
        "Satellite Number": 1091,
        "Semi-Major Axis(m)": 6931778.249405717,
        "Time(s)": 90
    },
    {
        "Altitude(m)": 562641.6831690678,
        "Argument of Periapsis(deg)": 0.0034857847951123688,
        "Eccentricity": 0.0,
        "Inclination(deg)": 53.0,
        "Latitude(deg)": -30.37501477203073,
        "Longitude(deg)": -9.336170459858813,
        "Mean Anomaly(deg)": -141.00438796443282,
        "RAAN(deg)": 244.9948122992253,
        "Satellite Name": "Starlink Shell 1 1091",
        "Satellite Number": 1091,
        "Semi-Major Axis(m)": 6931778.249405717,
        "Time(s)": 100
    },
    {
        "Altitude(m)": 562816.9671166969,
        "Argument of Periapsis(deg)": 0.003834363274623606,
        "Eccentricity": 0.0,
        "Inclination(deg)": 53.0,
        "Latitude(deg)": -30.824763400918073,
        "Longitude(deg)": -8.870942184361205,
        "Mean Anomaly(deg)": -140.37755676087608,
        "RAAN(deg)": 244.99429352914782,
        "Satellite Name": "Starlink Shell 1 1091",
        "Satellite Number": 1091,
        "Semi-Major Axis(m)": 6931778.249405717,
        "Time(s)": 110
    },
    {
        "Altitude(m)": 562992.2935958598,
        "Argument of Periapsis(deg)": 0.004182941754134842,
        "Eccentricity": 0.0,
        "Inclination(deg)": 53.0,
        "Latitude(deg)": -31.272469378735757,
        "Longitude(deg)": -8.401000597370468,
        "Mean Anomaly(deg)": -139.75072555731944,
        "RAAN(deg)": 244.99377475907033,
        "Satellite Name": "Starlink Shell 1 1091",
        "Satellite Number": 1091,
        "Semi-Major Axis(m)": 6931778.249405717,
        "Time(s)": 120
    },
    {
        "Altitude(m)": 563167.5965927303,
        "Argument of Periapsis(deg)": 0.004531520233646079,
        "Eccentricity": 0.0,
        "Inclination(deg)": 53.0,
        "Latitude(deg)": -31.718078421834146,
        "Longitude(deg)": -7.926238158754763,
        "Mean Anomaly(deg)": -139.12389435376275,
        "RAAN(deg)": 244.9932559889929,
        "Satellite Name": "Starlink Shell 1 1091",
        "Satellite Number": 1091,
        "Semi-Major Axis(m)": 6931778.249405717,
        "Time(s)": 130
    },
    {
        "Altitude(m)": 563342.8099576139,
        "Argument of Periapsis(deg)": 0.0048800987131573164,
        "Eccentricity": 0.0,
        "Inclination(deg)": 53.0,
        "Latitude(deg)": -32.16153500741181,
        "Longitude(deg)": -7.446546621015253,
        "Mean Anomaly(deg)": -138.49706315020592,
        "RAAN(deg)": 244.99273721891544,
        "Satellite Name": "Starlink Shell 1 1091",
        "Satellite Number": 1091,
        "Semi-Major Axis(m)": 6931778.249405717,
        "Time(s)": 140
    },
    {
        "Altitude(m)": 563517.8674345873,
        "Argument of Periapsis(deg)": 0.005228677192668553,
        "Eccentricity": 0.0,
        "Inclination(deg)": 53.0,
        "Latitude(deg)": -32.60278234136911,
        "Longitude(deg)": -6.961816554978503,
        "Mean Anomaly(deg)": -137.87023194664926,
        "RAAN(deg)": 244.99221844883795,
        "Satellite Name": "Starlink Shell 1 1091",
        "Satellite Number": 1091,
        "Semi-Major Axis(m)": 6931778.249405717,
        "Time(s)": 150
    },
    {
        "Altitude(m)": 563692.7026911601,
        "Argument of Periapsis(deg)": 0.00557725567217979,
        "Eccentricity": 0.0,
        "Inclination(deg)": 53.0,
        "Latitude(deg)": -33.041762326004324,
        "Longitude(deg)": -6.471936880854448,
        "Mean Anomaly(deg)": -137.24340074309256,
        "RAAN(deg)": 244.99169967876043,
        "Satellite Name": "Starlink Shell 1 1091",
        "Satellite Number": 1091,
        "Semi-Major Axis(m)": 6931778.249405717,
        "Time(s)": 160
    },
    {
        "Altitude(m)": 563867.2493479969,
        "Argument of Periapsis(deg)": 0.0059258341516910265,
        "Eccentricity": 0.0,
        "Inclination(deg)": 53.0,
        "Latitude(deg)": -33.478415527614544,
        "Longitude(deg)": -5.976795917930123,
        "Mean Anomaly(deg)": -136.61656953953587,
        "RAAN(deg)": 244.99118090868302,
        "Satellite Name": "Starlink Shell 1 1091",
        "Satellite Number": 1091,
        "Semi-Major Axis(m)": 6931778.249405717,
        "Time(s)": 170
    },
    {
        "Altitude(m)": 564041.4410085984,
        "Argument of Periapsis(deg)": 0.006274412631202263,
        "Eccentricity": 0.0,
        "Inclination(deg)": 53.0,
        "Latitude(deg)": -33.91268114406519,
        "Longitude(deg)": -5.476280927561989,
        "Mean Anomaly(deg)": -135.98973833597907,
        "RAAN(deg)": 244.99066213860553,
        "Satellite Name": "Starlink Shell 1 1091",
        "Satellite Number": 1091,
        "Semi-Major Axis(m)": 6931778.249405717,
        "Time(s)": 180
    }
]